{"type": "FeatureCollection", "features": [ {"type": "Feature", "properties": {"norad_id": 41549, "name": "GSAT0211 (GALILEO 14)", "group": "gnss", "lat": 50.77387207509202, "lon": -11.499257266797322, "alt_km": 23217.61703082774, "timestamp": "2025-12-07T03:52:32.738640+00:00", "meta": {"OBJECT_NAME": "GSAT0211 (GALILEO 14)", "OBJECT_ID": "2016-030A", "EPOCH": "2025-12-05T19:26:55.320000", "MEAN_MOTION": 1.70472946, "ECCENTRICITY": 0.00039556, "INCLINATION": 55.1547, "RA_OF_ASC_NODE": 227.0144, "ARG_OF_PERICENTER": 12.8849, "MEAN_ANOMALY": 347.2228, "EPHEMERIS_TYPE": 0, "CLASSIFICATION_TYPE": "U", "NORAD_CAT_ID": 41549, "ELEMENT_SET_NO": 999, "REV_AT_EPOCH": 5937, "BSTAR": 0, "MEAN_MOTION_DOT": 3.5e-07, "MEAN_MOTION_DDOT": 0}, "tle": {"line1": "1 41549U 16030A   25339.81036250  .00000035  00000+0  00000+0 0  9996", "line2": "2 41549  55.1547 227.0144 0003955  12.8849 347.2228  1.70472946 59378"}}, "geometry": {"type": "Point", "coordinates": [-11.499257266797322, 50.77387207509202]}}, {"type": "Feature", "properties": {"norad_id": 41550, "name": "GSAT0210 (GALILEO 13)", "group": "gnss", "lat": -38.10693186630246, "lon": -166.09722366382067, "alt_km": 23225.2019012945, "timestamp": "2025-12-07T03:52:32.738651+00:00", "meta": {"OBJECT_NAME": "GSAT0210 (GALILEO 13)", "OBJECT_ID": "2016-030B", "EPOCH": "2025-12-04T07:23:32.472672", "MEAN_MOTION": 1.70473512, "ECCENTRICITY": 0.0001419, "INCLINATION": 55.1546, "RA_OF_ASC_NODE": 227.0538, "ARG_OF_PERICENTER": 244.2228, "MEAN_ANOMALY": 115.8568, "EPHEMERIS_TYPE": 0, "CLASSIFICATION_TYPE": "U", "NORAD_CAT_ID": 41550, "ELEMENT_SET_NO": 999, "REV_AT_EPOCH": 5934, "BSTAR": 0, "MEAN_MOTION_DOT": 4e-07, "MEAN_MOTION_DDOT": 0}, "tle": {"line1": "1 41550U 16030B   25338.30801473  .00000040  00000+0  00000+0 0  9994", "line2": "2 41550  55.1546 227.0538 0001419 244.2228 115.8568  1.70473512 59344"}}, "geometry": {"type": "Point", "coordinates": [-166.09722366382067, -38.10693186630246]}}, {"type": "Feature", "properties": {"norad_id": 41586, "name": "BEIDOU-2 G7 (C03)", "group": "gnss", "lat": 0.06405214087961864, "lon": -115.19424547229914, "alt_km": 35805.12803510817, "timestamp": "2025-12-07T03:52:32.738665+00:00", "meta": {"OBJECT_NAME": "BEIDOU-2 G7 (C03)", "OBJECT_ID": "2016-037A", "EPOCH": "2025-12-06T12:28:41.400768", "MEAN_MOTION": 1.00270086, "ECCENTRICITY": 0.00043751, "INCLINATION": 1.7412, "RA_OF_ASC_NODE": 67.7316, "ARG_OF_PERICENTER": 1.5262, "MEAN_ANOMALY": 303.9569, "EPHEMERIS_TYPE": 0, "CLASSIFICATION_TYPE": "U", "NORAD_CAT_ID": 41586, "ELEMENT_SET_NO": 999, "REV_AT_EPOCH": 495, "BSTAR": 0, "MEAN_MOTION_DOT": -3.47e-06, "MEAN_MOTION_DDOT": 0}, "tle": {"line1": "1 41586U 16037A   25340.51992362 -.00000347  00000+0  00000+0 0  9995", "line2": "2 41586   1.7412  67.7316 0004375   1.5262 303.9569  1.00270086  4953"}}, "geometry": {"type": "Point", "coordinates": [-115.19424547229914, 0.06405214087961864]}}, {"type": "Feature", "properties": {"norad_id": 41589, "name": "EUTELSAT 117 WEST B (WAAS/PRN 131)", "group": "gnss", "lat": -0.006320630184084041, "lon": 17.317198418669438, "alt_km": 35785.54402325033, "timestamp": "2025-12-07T03:52:32.738678+00:00", "meta": {"OBJECT_NAME": "EUTELSAT 117 WEST B (WAAS/PRN 131)", "OBJECT_ID": "2016-038B", "EPOCH": "2025-12-06T11:23:47.617152", "MEAN_MOTION": 1.00272504, "ECCENTRICITY": 1.795e-05, "INCLINATION": 0.0132, "RA_OF_ASC_NODE": 172.9606, "ARG_OF_PERICENTER": 270.2421, "MEAN_ANOMALY": 46.2587, "EPHEMERIS_TYPE": 0, "CLASSIFICATION_TYPE": "U", "NORAD_CAT_ID": 41589, "ELEMENT_SET_NO": 999, "REV_AT_EPOCH": 3473, "BSTAR": 0, "MEAN_MOTION_DOT": -5e-08, "MEAN_MOTION_DDOT": 0}, "tle": {"line1": "1 41589U 16038B   25340.47485668 -.00000005  00000+0  00000+0 0  9991", "line2": "2 41589   0.0132 172.9606 0000179 270.2421  46.2587  1.00272504 34731"}}, "geometry": {"type": "Point", "coordinates": [17.317198418669438, -0.006320630184084041]}}, {"type": "Feature", "properties": {"norad_id": 41859, "name": "GSAT0207 (GALILEO 15)", "group": "gnss", "lat": 31.571013549736314, "lon": -98.70439778016517, "alt_km": 23224.70377065311, "timestamp": "2025-12-07T03:52:32.738696+00:00", "meta": {"OBJECT_NAME": "GSAT0207 (GALILEO 15)", "OBJECT_ID": "2016-069A", "EPOCH": "2025-12-05T18:13:35.857920", "MEAN_MOTION": 1.70474238, "ECCENTRICITY": 0.00021634, "INCLINATION": 55.3781, "RA_OF_ASC_NODE": 106.4436, "ARG_OF_PERICENTER": 324.5217, "MEAN_ANOMALY": 35.4153, "EPHEMERIS_TYPE": 0, "CLASSIFICATION_TYPE": "U", "NORAD_CAT_ID": 41859, "ELEMENT_SET_NO": 999, "REV_AT_EPOCH": 5610, "BSTAR": 0, "MEAN_MOTION_DOT": 7e-08, "MEAN_MOTION_DDOT": 0}, "tle": {"line1": "1 41859U 16069A   25339.75944280  .00000007  00000+0  00000+0 0  9995", "line2": "2 41859  55.3781 106.4436 0002163 324.5217  35.4153  1.70474238 56107"}}, "geometry": {"type": "Point", "coordinates": [-98.70439778016517, 31.571013549736314]}}, {"type": "Feature", "properties": {"norad_id": 41860, "name": "GSAT0212 (GALILEO 16)", "group": "gnss", "lat": -39.29872812409002, "lon": -39.21571996231922, "alt_km": 23233.091560560642, "timestamp": "2025-12-07T03:52:32.738721+00:00", "meta": {"OBJECT_NAME": "GSAT0212 (GALILEO 16)", "OBJECT_ID": "2016-069B", "EPOCH": "2025-12-06T04:47:33.838080", "MEAN_MOTION": 1.70474471, "ECCENTRICITY": 0.00022225, "INCLINATION": 55.376, "RA_OF_ASC_NODE": 106.4267, "ARG_OF_PERICENTER": 32.4045, "MEAN_ANOMALY": 327.5613, "EPHEMERIS_TYPE": 0, "CLASSIFICATION_TYPE": "U", "NORAD_CAT_ID": 41860, "ELEMENT_SET_NO": 999, "REV_AT_EPOCH": 5636, "BSTAR": 0, "MEAN_MOTION_DOT": 6e-08, "MEAN_MOTION_DDOT": 0}, "tle": {"line1": "1 41860U 16069B   25340.19969720  .00000006  00000+0  00000+0 0  9992", "line2": "2 41860  55.3760 106.4267 0002222  32.4045 327.5613  1.70474471 56361"}}, "geometry": {"type": "Point", "coordinates": [-39.21571996231922, -39.29872812409002]}}, {"type": "Feature", "properties": {"norad_id": 41861, "name": "GSAT0213 (GALILEO 17)", "group": "gnss", "lat": 3.854996863679923, "lon": 109.05954544906228, "alt_km": 23220.86285242131, "timestamp": "2025-12-07T03:52:32.738743+00:00", "meta": {"OBJECT_NAME": "GSAT0213 (GALILEO 17)", "OBJECT_ID": "2016-069C", "EPOCH": "2025-12-04T19:22:49.962144", "MEAN_MOTION": 1.70474712, "ECCENTRICITY": 0.00021375, "INCLINATION": 55.3775, "RA_OF_ASC_NODE": 106.4729, "ARG_OF_PERICENTER": 283.7545, "MEAN_ANOMALY": 76.173, "EPHEMERIS_TYPE": 0, "CLASSIFICATION_TYPE": "U", "NORAD_CAT_ID": 41861, "ELEMENT_SET_NO": 999, "REV_AT_EPOCH": 5620, "BSTAR": 0, "MEAN_MOTION_DOT": 1e-07, "MEAN_MOTION_DDOT": 0}, "tle": {"line1": "1 41861U 16069C   25338.80752271  .00000010  00000+0  00000+0 0  9994", "line2": "2 41861  55.3775 106.4729 0002137 283.7545  76.1730  1.70474712 56200"}}, "geometry": {"type": "Point", "coordinates": [109.05954544906228, 3.854996863679923]}}, {"type": "Feature", "properties": {"norad_id": 41862, "name": "GSAT0214 (GALILEO 18)", "group": "gnss", "lat": -55.05921433590417, "lon": 25.297861475207018, "alt_km": 23224.675388463886, "timestamp": "2025-12-07T03:52:32.738762+00:00", "meta": {"OBJECT_NAME": "GSAT0214 (GALILEO 18)", "OBJECT_ID": "2016-069D", "EPOCH": "2025-12-05T12:57:44.455104", "MEAN_MOTION": 1.70474584, "ECCENTRICITY": 0.00011763, "INCLINATION": 55.3762, "RA_OF_ASC_NODE": 106.4455, "ARG_OF_PERICENTER": 291.0864, "MEAN_ANOMALY": 68.8522, "EPHEMERIS_TYPE": 0, "CLASSIFICATION_TYPE": "U", "NORAD_CAT_ID": 41862, "ELEMENT_SET_NO": 999, "REV_AT_EPOCH": 5634, "BSTAR": 0, "MEAN_MOTION_DOT": 8e-08, "MEAN_MOTION_DDOT": 0}, "tle": {"line1": "1 41862U 16069D   25339.54009786  .00000008  00000+0  00000+0 0  9990", "line2": "2 41862  55.3762 106.4455 0001176 291.0864  68.8522  1.70474584 56340"}}, "geometry": {"type": "Point", "coordinates": [25.297861475207018, -55.05921433590417]}}, {"type": "Feature", "properties": {"norad_id": 42709, "name": "SES-15 (WAAS/PRN 133)", "group": "gnss", "lat": 0.01638276356566841, "lon": 5.139852407794345, "alt_km": 35787.00821570019, "timestamp": "2025-12-07T03:52:32.738781+00:00", "meta": {"OBJECT_NAME": "SES-15 (WAAS/PRN 133)", "OBJECT_ID": "2017-026A", "EPOCH": "2025-12-06T10:37:52.502592", "MEAN_MOTION": 1.00267579, "ECCENTRICITY": 5.173e-05, "INCLINATION": 0.0196, "RA_OF_ASC_NODE": 346.8785, "ARG_OF_PERICENTER": 293.5379, "MEAN_ANOMALY": 185.3614, "EPHEMERIS_TYPE": 0, "CLASSIFICATION_TYPE": "U", "NORAD_CAT_ID": 42709, "ELEMENT_SET_NO": 999, "REV_AT_EPOCH": 550, "BSTAR": 0, "MEAN_MOTION_DOT": 6.7e-07, "MEAN_MOTION_DDOT": 0}, "tle": {"line1": "1 42709U 17026A   25340.44296878  .00000067  00000+0  00000+0 0  9991", "line2": "2 42709   0.0196 346.8785 0000517 293.5379 185.3614  1.00267579  5507"}}, "geometry": {"type": "Point", "coordinates": [5.139852407794345, 0.01638276356566841]}}, {"type": "Feature", "properties": {"norad_id": 42738, "name": "QZS-2 (QZSS/PRN 194)", "group": "gnss", "lat": 22.620383030942413, "lon": -83.95729595089256, "alt_km": 37563.58824258955, "timestamp": "2025-12-07T03:52:32.738800+00:00", "meta": {"OBJECT_NAME": "QZS-2 (QZSS/PRN 194)", "OBJECT_ID": "2017-028A", "EPOCH": "2025-12-05T14:20:02.331744", "MEAN_MOTION": 1.00284944, "ECCENTRICITY": 0.07587515, "INCLINATION": 39.7259, "RA_OF_ASC_NODE": 245.988, "ARG_OF_PERICENTER": 269.4031, "MEAN_ANOMALY": 275.8025, "EPHEMERIS_TYPE": 0, "CLASSIFICATION_TYPE": "U", "NORAD_CAT_ID": 42738, "ELEMENT_SET_NO": 999, "REV_AT_EPOCH": 568, "BSTAR": 0, "MEAN_MOTION_DOT": -1.57e-06, "MEAN_MOTION_DDOT": 0}, "tle": {"line1": "1 42738U 17028A   25339.59724921 -.00000157  00000+0  00000+0 0  9995", "line2": "2 42738  39.7259 245.9880 0758751 269.4031 275.8025  1.00284944  5685"}}, "geometry": {"type": "Point", "coordinates": [-83.95729595089256, 22.620383030942413]}}]}